STARLINK-4035           
1 52690U 22053AL  26068.53390648  .00000586  00000+0  54925-4 0  9991
2 52690  53.2171 144.8198 0001430  81.5043 278.6111 15.08843322211092
DISKSAT A               
1 67222U 25305D   26068.54789610  .00013824  00000+0  90452-3 0  9996
2 67222  45.0023 251.6019 0004082 318.1929  41.8634 15.07741062 12266
